NORAD_CAT_ID,OBJECT_NAME,OBJECT_TYPE,EPOCH,MEAN_MOTION,ECCENTRICITY,INCLINATION,RA_OF_ASC_NODE,ARG_OF_PERICENTER,MEAN_ANOMALY,BSTAR,MEAN_MOTION_DOT,MEAN_MOTION_DDOT,TLE_LINE0,TLE_LINE1,TLE_LINE2,SEMIMAJOR_AXIS,PERIOD,APOGEE,PERIGEE,DECAYED
53829.0,STARLINK-4759,PAYLOAD,2023-08-19 06:02:33,15.08848903,0.0001431,53.2169,174.5087,100.2995,259.8158,2.4947e-05,1.09e-06,0.0,0 STARLINK-4759,1 53829U 22114M   23231.25177120  .00000109  00000-0  24947-4 0  9993,2 53829  53.2169 174.5087 0001431 100.2995 259.8158 15.08848903 51372,6917.853,95.437,540.708,538.728,0.0
53829.0,STARLINK-4759,PAYLOAD,2023-08-20 01:07:11,15.08842389,0.0001657,53.2172,170.939,113.3771,246.7395,1.0524e-05,-1.21e-06,0.0,0 STARLINK-4759,1 53829U 22114M   23232.04665651 -.00000121  00000-0  10524-4 0  9993,2 53829  53.2172 170.9390 0001657 113.3771 246.7395 15.08842389 51493,6917.873,95.437,540.884,538.592,0.0
53829.0,STARLINK-4759,PAYLOAD,2023-08-21 02:33:21,15.08843251,0.0001629,53.2175,166.1817,113.7778,246.3385,4.3877e-05,4.1e-06,0.0,0 STARLINK-4759,1 53829U 22114M   23233.10649558  .00000410  00000-0  43877-4 0  9996,2 53829  53.2175 166.1817 0001629 113.7778 246.3385 15.08843251 51659,6917.87,95.437,540.862,538.609,0.0
53829.0,STARLINK-4759,PAYLOAD,2023-08-22 03:59:31,15.08839986,0.0001395,53.2177,161.4216,102.5398,257.575,-2.1287e-05,-6.27e-06,0.0,0 STARLINK-4759,1 53829U 22114M   23234.16634206 -.00000627  00000-0 -21287-4 0  9990,2 53829  53.2177 161.4216 0001395 102.5398 257.5750 15.08839986 51814,6917.88,95.438,540.71,538.78,0.0
53829.0,STARLINK-4759,PAYLOAD,2023-08-24 03:41:06,15.08839732,0.0001545,53.218,152.5025,91.5018,268.6151,0.00011146,1.486e-05,0.0,0 STARLINK-4759,1 53829U 22114M   23236.15354736  .00001486  00000-0  11146-3 0  9992,2 53829  53.2180 152.5025 0001545  91.5018 268.6151 15.08839732 52650,6917.881,95.438,540.815,538.677,0.0
53829.0,STARLINK-4759,PAYLOAD,2023-08-25 00:21:07,15.08840096,0.0001495,53.2173,148.639,85.107,275.0093,3.208e-05,2.23e-06,0.0,0 STARLINK-4759,1 53829U 22114M   23237.01467146  .00000223  00000-0  32080-4 0  9997,2 53829  53.2173 148.6390 0001495  85.1070 275.0093 15.08840096 52241,6917.88,95.438,540.779,538.711,0.0
53829.0,STARLINK-4759,PAYLOAD,2023-08-25 03:31:53,15.08841918,0.0001445,53.2173,148.0433,89.8993,270.2165,3.7115e-05,3.03e-06,0.0,0 STARLINK-4759,1 53829U 22114M   23237.14714965  .00000303  00000-0  37115-4 0  9998,2 53829  53.2173 148.0433 0001445  89.8993 270.2165 15.08841918 52806,6917.875,95.437,540.739,538.74,0.0
53829.0,STARLINK-4759,PAYLOAD,2023-08-26 00:11:53,15.08850642,0.000141,53.2175,144.1768,92.3993,267.716,5.7029e-05,6.2e-06,0.0,0 STARLINK-4759,1 53829U 22114M   23238.00826201  .00000620  00000-0  57029-4 0  9999,2 53829  53.2175 144.1768 0001410  92.3993 267.7160 15.08850642 52391,6917.848,95.437,540.688,538.737,0.0
53829.0,STARLINK-4759,PAYLOAD,2023-08-26 03:22:40,15.08850542,0.0001466,53.2177,143.5829,92.5462,267.5698,5.7603e-05,6.29e-06,0.0,0 STARLINK-4759,1 53829U 22114M   23238.14074169  .00000629  00000-0  57603-4 0  9999,2 53829  53.2177 143.5829 0001466  92.5462 267.5698 15.08850542 52953,6917.848,95.437,540.727,538.699,0.0
53829.0,STARLINK-4759,PAYLOAD,2023-08-26 17:41:08,15.08841222,0.0001583,53.2175,140.9048,100.7092,259.4079,4.9738e-06,-2.09e-06,0.0,0 STARLINK-4759,1 53829U 22114M   23238.73690900 -.00000209  00000-0  49738-5 0  9997,2 53829  53.2175 140.9048 0001583 100.7092 259.4079 15.08841222 52505,6917.877,95.437,540.837,538.647,0.0
53829.0,STARLINK-4759,PAYLOAD,2023-08-26 20:51:55,15.08842263,0.0001424,53.2156,140.3118,101.3793,258.7359,2.741e-05,1.48e-06,0.0,0 STARLINK-4759,1 53829U 22114M   23238.86938694  .00000148  00000-0  27410-4 0  9999,2 53829  53.2156 140.3118 0001424 101.3793 258.7359 15.08842263 53066,6917.873,95.437,540.724,538.753,0.0
53829.0,STARLINK-4759,PAYLOAD,2023-08-27 03:13:27,15.08845334,0.0001391,53.217,139.1235,89.7269,270.3883,1.9729e-05,2.6e-07,0.0,0 STARLINK-4759,1 53829U 22114M   23239.13434553  .00000026  00000-0  19729-4 0  9994,2 53829  53.2170 139.1235 0001391  89.7269 270.3883 15.08845334 53107,6917.864,95.437,540.691,538.767,0.0
53829.0,STARLINK-4759,PAYLOAD,2023-08-27 20:42:42,15.0883808,0.0001322,53.2165,135.8525,88.9574,271.157,3.4815e-05,2.66e-06,0.0,0 STARLINK-4759,1 53829U 22114M   23239.86298896  .00000266  00000-0  34815-4 0  9991,2 53829  53.2165 135.8525 0001322  88.9574 271.1570 15.08838080 53214,6917.886,95.438,540.666,538.837,0.0
53829.0,STARLINK-4759,PAYLOAD,2023-08-27 23:53:28,15.08846786,0.0001382,53.2168,135.2578,87.3384,272.7766,6.708e-06,-1.81e-06,0.0,0 STARLINK-4759,1 53829U 22114M   23239.99546489 -.00000181  00000-0  67080-5 0  9997,2 53829  53.2168 135.2578 0001382  87.3384 272.7766 15.08846786 52694,6917.86,95.437,540.681,538.769,0.0
53829.0,STARLINK-4759,PAYLOAD,2023-08-28 17:22:43,15.08834681,0.0001855,53.2196,131.9923,78.2573,281.8627,4.2696e-05,3.91e-06,0.0,0 STARLINK-4759,1 53829U 22114M   23240.72411383  .00000391  00000-0  42696-4 0  9991,2 53829  53.2196 131.9923 0001855  78.2573 281.8627 15.08834681 52807,6917.897,95.438,541.045,538.478,0.0
53829.0,STARLINK-4759,PAYLOAD,2023-08-28 20:33:29,15.08833847,0.0001485,53.2194,131.4008,93.2456,266.8706,5.8544e-05,6.44e-06,0.0,0 STARLINK-4759,1 53829U 22114M   23240.85659339  .00000644  00000-0  58544-4 0  9990,2 53829  53.2194 131.4008 0001485  93.2456 266.8706 15.08833847 53366,6917.899,95.438,540.792,538.737,0.0
53829.0,STARLINK-4759,PAYLOAD,2023-08-29 01:19:38,15.08842052,0.0001323,53.2168,130.5008,88.6351,271.4793,7.4348e-05,8.96e-06,0.0,0 STARLINK-4759,1 53829U 22114M   23241.05530769  .00000896  00000-0  74348-4 0  9997,2 53829  53.2168 130.5008 0001323  88.6351 271.4793 15.08842052 52859,6917.874,95.437,540.654,538.824,0.0
53829.0,STARLINK-4759,PAYLOAD,2023-08-29 09:16:34,15.08837308,0.0001239,53.2169,129.0113,90.2283,269.8851,4.7102e-05,4.62e-06,0.0,0 STARLINK-4759,1 53829U 22114M   23241.38651116  .00000462  00000-0  47102-4 0  9990,2 53829  53.2169 129.0113 0001239  90.2283 269.8851 15.08837308 52909,6917.889,95.438,540.611,538.896,0.0
53829.0,STARLINK-4759,PAYLOAD,2023-08-30 02:45:48,15.08848404,0.0001311,53.217,125.7457,104.0742,256.0395,8.2289e-05,1.022e-05,0.0,0 STARLINK-4759,1 53829U 22114M   23242.11514523  .00001022  00000-0  82289-4 0  9990,2 53829  53.2170 125.7457 0001311 104.0742 256.0395 15.08848404 53013,6917.855,95.437,540.627,538.813,0.0
53829.0,STARLINK-4759,PAYLOAD,2023-08-30 18:39:39,15.08847477,0.0001421,53.2171,122.7717,96.8435,263.2718,0.0001204,1.629e-05,0.0,0 STARLINK-4759,1 53829U 22114M   23242.77754472  .00001629  00000-0  12040-3 0  9991,2 53829  53.2171 122.7717 0001421  96.8435 263.2718 15.08847477 53657,6917.858,95.437,540.706,538.74,0.0
53829.0,STARLINK-4759,PAYLOAD,2023-08-31 01:01:12,15.08849816,0.0001475,53.2167,121.5818,95.0434,265.0726,0.00013028,1.787e-05,0.0,0 STARLINK-4759,1 53829U 22114M   23243.04250193  .00001787  00000-0  13028-3 0  9995,2 53829  53.2167 121.5818 0001475  95.0434 265.0726 15.08849816 53692,6917.85,95.437,540.736,538.695,0.0
53829.0,STARLINK-4759,PAYLOAD,2023-09-01 00:52:00,15.08844748,0.0001728,53.217,117.1259,114.6006,245.5166,8.8222e-06,-1.48e-06,0.0,0 STARLINK-4759,1 53829U 22114M   23244.03611168 -.00000148  00000-0  88222-5 0  9999,2 53829  53.2170 117.1259 0001728 114.6006 245.5166 15.08844748 53308,6917.866,95.437,540.926,538.535,0.0
53829.0,STARLINK-4759,PAYLOAD,2023-09-01 08:48:56,15.08837331,0.0001541,53.2167,115.633,85.5645,274.5523,3.2941e-05,2.36e-06,0.0,0 STARLINK-4759,1 53829U 22114M   23244.36731733  .00000236  00000-0  32941-4 0  9999,2 53829  53.2167 115.6330 0001541  85.5645 274.5523 15.08837331 53359,6917.889,95.438,540.82,538.688,0.0
53829.0,STARLINK-4759,PAYLOAD,2023-09-01 18:21:14,15.08829902,4.73e-05,53.2163,113.8485,250.2505,109.8436,0.00016236,2.297e-05,0.0,0 STARLINK-4759,1 53829U 22114M   23244.76475190  .00002297  00000-0  16236-3 0  9992,2 53829  53.2163 113.8485 0000473 250.2505 109.8436 15.08829902 53959,6917.911,95.438,540.103,539.449,0.0
53829.0,STARLINK-4759,PAYLOAD,2023-09-02 08:39:43,15.08834482,0.000182,53.217,111.174,81.2431,278.8767,0.00012552,1.71e-05,0.0,0 STARLINK-4759,1 53829U 22114M   23245.36091715  .00001710  00000-0  12552-3 0  9992,2 53829  53.2170 111.1740 0001820  81.2431 278.8767 15.08834482 54043,6917.897,95.438,541.021,538.503,0.0
53829.0,STARLINK-4759,PAYLOAD,2023-09-02 15:01:15,15.08833904,0.0001422,53.2164,109.9813,96.1902,263.9253,8.5344e-05,1.07e-05,0.0,0 STARLINK-4759,1 53829U 22114M   23245.62587835  .00001070  00000-0  85344-4 0  9993,2 53829  53.2164 109.9813 0001422  96.1902 263.9253 15.08833904 53545,6917.899,95.438,540.748,538.78,0.0
53829.0,STARLINK-4759,PAYLOAD,2023-09-02 21:22:47,15.08842751,0.0001504,53.2162,108.7929,93.1154,267.001,0.00015711,2.213e-05,0.0,0 STARLINK-4759,1 53829U 22114M   23245.89083209  .00002213  00000-0  15711-3 0  9998,2 53829  53.2162 108.7929 0001504  93.1154 267.0010 15.08842751 54126,6917.872,95.437,540.777,538.697,0.0
53829.0,STARLINK-4759,PAYLOAD,2023-09-03 08:30:30,15.08832012,0.0002076,53.2162,106.7127,85.1514,274.9716,6.5566e-05,7.55e-06,0.0,0 STARLINK-4759,1 53829U 22114M   23246.35452479  .00000755  00000-0  65566-4 0  9992,2 53829  53.2162 106.7127 0002076  85.1514 274.9716 15.08832012 53656,6917.905,95.438,541.206,538.334,0.0
53829.0,STARLINK-4759,PAYLOAD,2023-09-03 21:13:35,15.08842728,0.0001481,53.2164,104.3331,90.3037,269.8125,8.8346e-05,1.118e-05,0.0,0 STARLINK-4759,1 53829U 22114M   23246.88443609  .00001118  00000-0  88346-4 0  9990,2 53829  53.2164 104.3331 0001481  90.3037 269.8125 15.08842728 53737,6917.872,95.437,540.762,538.713,0.0
53829.0,STARLINK-4759,PAYLOAD,2023-09-04 21:04:22,15.08836679,0.0001298,53.2161,99.8735,89.6767,270.4374,5.6134e-05,6.06e-06,0.0,0 STARLINK-4759,1 53829U 22114M   23247.87804146  .00000606  00000-0  56134-4 0  9998,2 53829  53.2161  99.8735 0001298  89.6767 270.4374 15.08836679 53885,6917.891,95.438,540.653,538.858,0.0
